0 DELTA 1 R/B
1 06306U 72097B   13283.54683010 -.00000027  00000-0  27660-4 0   349
2 06306 099.7658 088.8893 0270634 106.0675 296.1402 12.88352201920032
0 DELTA 1 R/B
1 06306U 72097B   13285.56744256  .00000121  00000-0  52142-3 0   350
2 06306 099.7659 090.6679 0270584 101.5767 307.8843 12.88350785920294
0 DELTA 1 R/B
1 06306U 72097B   13287.58546172 -.00000017  00000-0  61225-4 0   360
2 06306 099.7661 092.4442 0270571 097.0989 307.5745 12.88352506920556
0 DELTA 1 R/B
1 06306U 72097B   13290.08955905 -.00000175  00000-0 -46697-3 0   379
2 06306 099.7666 094.6484 0270604 091.5545 041.7210 12.88353954920872
0 DELTA 1 R/B
1 06306U 72097B   13292.10810211  .00000036  00000-0  23864-3 0   380
2 06306 099.7670 096.4252 0270607 087.0777 043.8678 12.88351707921135
0 DELTA 1 R/B
1 06306U 72097B   13294.12687647  .00000144  00000-0  59844-3 0   397
2 06306 099.7669 098.2023 0270574 082.5914 047.0840 12.88351050921391
0 DELTA 1 R/B
1 06306U 72097B   13296.14562602 -.00000066  00000-0 -10256-3 0   405
2 06306 099.7669 099.9795 0270536 078.1051 050.1664 12.88353372921653
